[Satellite]
VERSION=1.1
NAME=GPS BIIR-09 (PRN 21)
NICKNAME=GPS BIIR-09 (PRN 21)
TLE1=1 27704U 03010A   17186.24074748 -.00000072  00000-0  00000-0 0  9993
TLE2=2 27704  53.8678  97.4719 0241924 264.9889 288.6643  2.00565891104541
